NORAD_CAT_ID,OBJECT_NAME,OBJECT_TYPE,EPOCH,MEAN_MOTION,ECCENTRICITY,INCLINATION,RA_OF_ASC_NODE,ARG_OF_PERICENTER,MEAN_ANOMALY,BSTAR,MEAN_MOTION_DOT,MEAN_MOTION_DDOT,TLE_LINE0,TLE_LINE1,TLE_LINE2,SEMIMAJOR_AXIS,PERIOD,APOGEE,PERIGEE,DECAYED
51795.0,STARLINK-3586,PAYLOAD,2024-03-30 06:49:37,15.0884181,0.0001206,53.2172,293.9596,82.1434,277.9695,0.00010728,1.42e-05,0.0,0 STARLINK-3586,1 51795U 22017AD  24090.28446461  .00001420  00000-0  10728-3 0  9997,2 51795  53.2172 293.9596 0001206  82.1434 277.9695 15.08841810116822,6917.875,95.437,540.574,538.906,0.0
51795.0,STARLINK-3586,PAYLOAD,2024-03-30 22:43:29,15.08845561,0.0001124,53.2155,290.9858,84.2798,275.8322,0.00023589,3.469e-05,0.0,0 STARLINK-3586,1 51795U 22017AD  24090.94686481  .00003469  00000-0  23589-3 0  9992,2 51795  53.2155 290.9858 0001124  84.2798 275.8322 15.08845561116928,6917.863,95.437,540.506,538.951,0.0
51795.0,STARLINK-3586,PAYLOAD,2024-03-31 13:01:55,15.08878367,9.29e-05,53.2182,288.3096,70.6396,289.4697,0.00057573,8.896e-05,0.0,0 STARLINK-3586,1 51795U 22017AD  24091.54299844  .00008896  00000-0  57573-3 0  9991,2 51795  53.2182 288.3096 0000929  70.6396 289.4697 15.08878367117015,6917.763,95.435,540.271,538.985,0.0
51795.0,STARLINK-3586,PAYLOAD,2024-03-31 19:23:29,15.08830785,9.98e-05,53.2158,287.1195,80.0046,280.1059,-0.00013536,-2.441e-05,0.0,0 STARLINK-3586,1 51795U 22017AD  24091.80798122 -.00002441  00000-0 -13536-3 0  9996,2 51795  53.2158 287.1195 0000998  80.0046 280.1059 15.08830785117054,6917.909,95.438,540.464,539.083,0.0
51795.0,STARLINK-3586,PAYLOAD,2024-03-31 22:34:15,15.08834069,0.0001173,53.2172,286.5221,94.1697,265.9429,-8.3119e-05,-1.61e-05,0.0,0 STARLINK-3586,1 51795U 22017AD  24091.94045936 -.00001610  00000-0 -83119-4 0  9991,2 51795  53.2172 286.5221 0001173  94.1697 265.9429 15.08834069117070,6917.899,95.438,540.575,538.952,0.0
51795.0,STARLINK-3586,PAYLOAD,2024-04-01 06:31:11,15.08827518,0.0001161,53.2158,285.0348,93.1745,266.938,-0.00017119,-3.01e-05,0.0,0 STARLINK-3586,1 51795U 22017AD  24092.27166398 -.00003010  00000-0 -17119-3 0  9996,2 51795  53.2158 285.0348 0001161  93.1745 266.9380 15.08827518117122,6917.919,95.438,540.587,538.98,0.0
51795.0,STARLINK-3586,PAYLOAD,2024-04-01 22:25:03,15.08829656,0.000133,53.2173,282.0616,87.4105,272.7039,-0.00014386,-2.576e-05,0.0,0 STARLINK-3586,1 51795U 22017AD  24092.93406832 -.00002576  00000-0 -14386-3 0  9998,2 51795  53.2173 282.0616 0001330  87.4105 272.7039 15.08829656117220,6917.912,95.438,540.697,538.857,0.0
51795.0,STARLINK-3586,PAYLOAD,2024-04-02 12:43:31,15.08842241,0.0001278,53.2159,279.3863,85.2791,274.8347,-0.00012953,-2.349e-05,0.0,0 STARLINK-3586,1 51795U 22017AD  24093.53022339 -.00002349  00000-0 -12953-3 0  9997,2 51795  53.2159 279.3863 0001278  85.2791 274.8347 15.08842241117315,6917.874,95.437,540.623,538.854,0.0
51795.0,STARLINK-3586,PAYLOAD,2024-04-02 19:05:04,15.08835461,0.0001339,53.2161,278.1976,88.0542,272.0603,0.00042327,6.454e-05,0.0,0 STARLINK-3586,1 51795U 22017AD  24093.79518997  .00006454  00000-0  42327-3 0  9992,2 51795  53.2161 278.1976 0001339  88.0542 272.0603 15.08835461117358,6917.894,95.438,540.686,538.833,0.0
51795.0,STARLINK-3586,PAYLOAD,2024-04-03 12:34:19,15.08840956,0.0001419,53.2165,274.9265,87.0589,273.0566,0.00034499,5.207e-05,0.0,0 STARLINK-3586,1 51795U 22017AD  24094.52383209  .00005207  00000-0  34499-3 0  9996,2 51795  53.2165 274.9265 0001419  87.0589 273.0566 15.08840956117462,6917.877,95.437,540.724,538.761,0.0
51795.0,STARLINK-3586,PAYLOAD,2024-04-03 22:06:37,15.0885234,0.0001316,53.2159,273.1423,83.1569,276.9573,0.00039694,6.037e-05,0.0,0 STARLINK-3586,1 51795U 22017AD  24094.92126749  .00006037  00000-0  39694-3 0  9998,2 51795  53.2159 273.1423 0001316  83.1569 276.9573 15.08852340117520,6917.843,95.437,540.618,538.797,0.0
51795.0,STARLINK-3586,PAYLOAD,2024-04-04 10:49:42,15.08842013,0.0001347,53.2154,270.7642,87.6391,272.4755,3.449e-05,2.61e-06,0.0,0 STARLINK-3586,1 51795U 22017AD  24095.45118878  .00000261  00000-0  34490-4 0  9994,2 51795  53.2154 270.7642 0001347  87.6391 272.4755 15.08842013117605,6917.874,95.437,540.671,538.807,0.0
51795.0,STARLINK-3586,PAYLOAD,2024-04-04 18:46:38,15.08840316,0.0001403,53.2158,269.2775,94.1022,266.013,4.5881e-05,4.42e-06,0.0,0 STARLINK-3586,1 51795U 22017AD  24095.78239057  .00000442  00000-0  45881-4 0  9990,2 51795  53.2158 269.2775 0001403  94.1022 266.0130 15.08840316117651,6917.879,95.438,540.715,538.774,0.0
51795.0,STARLINK-3586,PAYLOAD,2024-04-05 12:15:52,15.08843121,0.0001325,53.2163,266.006,88.7872,271.3272,3.5663e-05,2.8e-06,0.0,0 STARLINK-3586,1 51795U 22017AD  24096.51102787  .00000280  00000-0  35663-4 0  9998,2 51795  53.2163 266.0060 0001325  88.7872 271.3272 15.08843121117769,6917.871,95.437,540.652,538.819,0.0
51795.0,STARLINK-3586,PAYLOAD,2024-04-05 18:37:25,15.08847038,0.0001309,53.2173,264.8164,89.0495,271.0647,8.7476e-05,1.105e-05,0.0,0 STARLINK-3586,1 51795U 22017AD  24096.77598669  .00001105  00000-0  87476-4 0  9990,2 51795  53.2173 264.8164 0001309  89.0495 271.0647 15.08847038117807,6917.859,95.437,540.629,538.818,0.0
51795.0,STARLINK-3586,PAYLOAD,2024-04-06 04:09:44,15.08844078,0.0001292,53.2175,263.0321,88.7688,271.3452,4.7622e-05,4.7e-06,0.0,0 STARLINK-3586,1 51795U 22017AD  24097.17342890  .00000470  00000-0  47622-4 0  9991,2 51795  53.2175 263.0321 0001292  88.7688 271.3452 15.08844078117860,6917.868,95.437,540.627,538.839,0.0
51795.0,STARLINK-3586,PAYLOAD,2024-04-06 10:31:17,15.08835705,0.0001315,53.2175,261.8428,90.2182,269.8961,8.6783e-05,1.093e-05,0.0,0 STARLINK-3586,1 51795U 22017AD  24097.43839400  .00001093  00000-0  86783-4 0  9991,2 51795  53.2175 261.8428 0001315  90.2182 269.8961 15.08835705117906,6917.894,95.438,540.668,538.849,0.0
51795.0,STARLINK-3586,PAYLOAD,2024-04-06 20:03:36,15.08841352,0.0001528,53.2175,260.0586,83.0355,277.081,-3.1789e-05,-7.94e-06,0.0,0 STARLINK-3586,1 51795U 22017AD  24097.83583396 -.00000794  00000-0 -31789-4 0  9990,2 51795  53.2175 260.0586 0001528  83.0355 277.0810 15.08841352117965,6917.876,95.437,540.798,538.684,0.0
51795.0,STARLINK-3586,PAYLOAD,2024-04-07 11:57:26,15.0884895,0.0001366,53.2171,257.0849,78.2462,281.8683,0.00012727,1.739e-05,0.0,0 STARLINK-3586,1 51795U 22017AD  24098.49822704  .00001739  00000-0  12727-3 0  9990,2 51795  53.2171 257.0849 0001366  78.2462 281.8683 15.08848950118068,6917.853,95.437,540.663,538.773,0.0
51795.0,STARLINK-3586,PAYLOAD,2024-04-07 13:32:49,15.08853256,0.0001366,53.2166,256.7868,80.6779,279.4367,0.0001688,2.4e-05,0.0,0 STARLINK-3586,1 51795U 22017AD  24098.56446353  .00002400  00000-0  16880-3 0  9990,2 51795  53.2166 256.7868 0001366  80.6779 279.4367 15.08853256118075,6917.84,95.437,540.65,538.76,0.0
51795.0,STARLINK-3586,PAYLOAD,2024-04-07 18:18:58,15.08859905,0.000126,53.2156,255.8936,82.0629,278.0507,0.00034395,5.193e-05,0.0,0 STARLINK-3586,1 51795U 22017AD  24098.76318163  .00005193  00000-0  34395-3 0  9992,2 51795  53.2156 255.8936 0001260  82.0629 278.0507 15.08859905118105,6917.82,95.436,540.556,538.813,0.0
51795.0,STARLINK-3586,PAYLOAD,2024-04-08 10:12:51,15.08844314,0.0001934,53.2138,252.92,87.9842,272.1372,0.00019186,2.767e-05,0.0,0 STARLINK-3586,1 51795U 22017AD  24099.42559039  .00002767  00000-0  19186-3 0  9990,2 51795  53.2138 252.9200 0001934  87.9842 272.1372 15.08844314118200,6917.867,95.437,541.07,538.394,0.0
51795.0,STARLINK-3586,PAYLOAD,2024-04-08 16:34:23,15.08843711,0.0001999,53.2152,251.7304,90.1511,269.9711,0.00015703,2.212e-05,0.0,0 STARLINK-3586,1 51795U 22017AD  24099.69055091  .00002212  00000-0  15703-3 0  9994,2 51795  53.2152 251.7304 0001999  90.1511 269.9711 15.08843711118243,6917.869,95.437,541.117,538.351,0.0
51795.0,STARLINK-3586,PAYLOAD,2024-04-09 03:42:05,15.0883446,0.0001304,53.2168,249.6495,92.4466,267.6676,3.1556e-05,2.14e-06,0.0,0 STARLINK-3586,1 51795U 22017AD  24100.15423492  .00000214  00000-0  31556-4 0  9997,2 51795  53.2168 249.6495 0001304  92.4466 267.6676 15.08834460118315,6917.897,95.438,540.664,538.86,0.0
51795.0,STARLINK-3586,PAYLOAD,2024-04-09 10:03:38,15.08839299,0.0001519,53.2156,248.4597,90.8461,269.2705,-2.9979e-05,-7.65e-06,0.0,0 STARLINK-3586,1 51795U 22017AD  24100.41919336 -.00000765  00000-0 -29979-4 0  9992,2 51795  53.2156 248.4597 0001519  90.8461 269.2705 15.08839299118357,6917.883,95.438,540.798,538.697,0.0
51795.0,STARLINK-3586,PAYLOAD,2024-04-09 16:25:10,15.08842801,0.0001525,53.2156,247.2703,91.2047,268.912,3.6922e-05,3e-06,0.0,0 STARLINK-3586,1 51795U 22017AD  24100.68415165  .00000300  00000-0  36922-4 0  9991,2 51795  53.2156 247.2703 0001525  91.2047 268.9120 15.08842801118399,6917.872,95.437,540.792,538.682,0.0
51795.0,STARLINK-3586,PAYLOAD,2024-04-10 16:15:58,15.0883109,0.0001482,53.214,242.8095,94.8152,265.3009,5.9408e-05,6.57e-06,0.0,0 STARLINK-3586,1 51795U 22017AD  24101.67776114  .00000657  00000-0  59408-4 0  9994,2 51795  53.2140 242.8095 0001482  94.8152 265.3009 15.08831090118547,6917.908,95.438,540.798,538.747,0.0
51795.0,STARLINK-3586,PAYLOAD,2024-04-11 12:55:59,15.08842321,0.0001376,53.2166,238.9448,95.3838,264.7311,0.00017117,2.437e-05,0.0,0 STARLINK-3586,1 51795U 22017AD  24102.53887766  .00002437  00000-0  17117-3 0  9994,2 51795  53.2166 238.9448 0001376  95.3838 264.7311 15.08842321118674,6917.873,95.437,540.69,538.786,0.0
51795.0,STARLINK-3586,PAYLOAD,2024-04-11 14:31:21,15.08847827,0.0001684,53.2167,238.6467,92.9332,267.1853,9.2988e-05,1.192e-05,0.0,0 STARLINK-3586,1 51795U 22017AD  24102.60511503  .00001192  00000-0  92988-4 0  9992,2 51795  53.2167 238.6467 0001684  92.9332 267.1853 15.08847827118682,6917.856,95.437,540.886,538.556,0.0
51795.0,STARLINK-3586,PAYLOAD,2024-04-11 16:06:45,15.08843206,0.0001257,53.2174,238.3524,88.4931,271.6205,0.00040344,6.139e-05,0.0,0 STARLINK-3586,1 51795U 22017AD  24102.67135816  .00006139  00000-0  40344-3 0  9992,2 51795  53.2174 238.3524 0001257  88.4931 271.6205 15.08843206118691,6917.871,95.437,540.605,538.866,0.0
